{"type":"FeatureCollection","crs":{"type":"name","properties":{"name":"EPSG:4326"}},"features":[{"type":"Feature","geometry":{"type":"MultiPolygon","coordinates":[[[[-73.9824604259938,40.7055506710271],[-73.9824243120344,40.7058303103976],[-73.9810253461329,40.7059071694122],[-73.9810187791674,40.7058057617181],[-73.9823034927387,40.7057452358662],[-73.9823308823388,40.7055602893938],[-73.9823748448143,40.7055516061954],[-73.9824604259938,40.7055506710271]]],[[[-73.9750619496986,40.7187937101921],[-73.974991404208,40.7187872670504],[-73.9749230637883,40.7187899888369],[-73.9748723086462,40.7188050388027],[-73.9748077119909,40.7188259786565],[-73.9747670483475,40.7188519719809],[-73.9747002114885,40.7188470729477],[-73.974648205642,40.7188455018255],[-73.9736137808628,40.7186139130688],[-73.9735732938582,40.7186054885166],[-73.9737109164198,40.7181561915788],[-73.9738574709611,40.7177085354069],[-73.974012927686,40.717262619917],[-73.9741772496984,40.7168185495244],[-73.9743503977402,40.7163764250399],[-73.9745323337401,40.7159363481732],[-73.9747230148966,40.7154984206315],[-73.9749223972287,40.7150627432195],[-73.9751304343935,40.7146294149382],[-73.9751512176013,40.7145876807601],[-73.9751650473029,40.71456016324],[-73.9751899480185,40.7145114185671],[-73.975215308902,40.7144567567325],[-73.9752269351926,40.7144316980246],[-73.9752481031712,40.7143860646997],[-73.9752481434396,40.7143859827619],[-73.9758045517269,40.7131863821757],[-73.975796766376,40.7131782813457],[-73.9759698838206,40.7127978310948],[-73.9760512530395,40.7126124517848],[-73.9761251276128,40.7124685835081],[-73.9761667516538,40.7124284554636],[-73.9763127175003,40.7121269045012],[-73.9764301644329,40.7119172896706],[-73.9765068397549,40.7118070467869],[-73.9765515272437,40.7117427963386],[-73.9767136549687,40.7115440225459],[-73.9768202743568,40.7114278241183],[-73.9769922045743,40.7112649174498],[-73.9770580335284,40.711205883181],[-73.9772235747421,40.71107698809],[-73.9775281230357,40.7108513294492],[-73.977722634827,40.7107183320551],[-73.9778223560281,40.7106537027196],[-73.977900935107,40.7106081231543],[-73.9779981871646,40.7105692739227],[-73.9780811887929,40.7105405076204],[-73.9781833461817,40.7105151218062],[-73.9782570171676,40.7105061657524],[-73.9783729211896,40.7104979641163],[-73.9786170411204,40.7104820391517],[-73.9787775730873,40.7104715715979],[-73.9791903836647,40.7104431799973],[-73.9792087043097,40.7104419234924],[-73.9792915927134,40.7104364020893],[-73.9800378634761,40.7103866581959],[-73.9802848833122,40.7103700719235],[-73.9803379655414,40.7103674569119],[-73.9803323408532,40.7102951953402],[-73.980511900485,40.7102830086404],[-73.9812879163967,40.7102266041953],[-73.9812472361344,40.709834471814],[-73.9830616361709,40.7096561690833],[-73.9836437859163,40.7096001361044],[-73.9844979113807,40.7095179205413],[-73.9846566865831,40.7104730184887],[-73.9846663554547,40.7105224299176],[-73.984676034993,40.7105718341426],[-73.9846850560199,40.7106133389961],[-73.9847042286166,40.710710272552],[-73.9847855019619,40.7112370462307],[-73.9848542488728,40.711706399792],[-73.9849518608476,40.7123637873243],[-73.9850260625517,40.7128632878248],[-73.9850327259302,40.7129081413314],[-73.9850591431981,40.7130859749241],[-73.98511524863,40.7133595141244],[-73.9850665349948,40.713815176127],[-73.9852298878444,40.7138011834506],[-73.9853454858151,40.7144698354578],[-73.9855864937715,40.7144506624911],[-73.9856727196329,40.7144435556169],[-73.9858558180267,40.7144283929443],[-73.9871677223948,40.7143203151565],[-73.9876683442801,40.7142790796476],[-73.9884061327377,40.7142183096967],[-73.9887033545899,40.7141937985244],[-73.9893380076539,40.7141416330246],[-73.9902215699438,40.714413197378],[-73.9902289527552,40.7144999270783],[-73.9902229989425,40.7145870140486],[-73.9902038022084,40.7146726878913],[-73.9897556248579,40.7155606062675],[-73.9891560802813,40.7167169048398],[-73.9899516340767,40.7169802330844],[-73.9907043436222,40.7172088638163],[-73.9911776758075,40.7173512176875],[-73.9913055967987,40.71738993945],[-73.9914241708102,40.7174258345736],[-73.9922220868545,40.7176667047636],[-73.9930957655223,40.7179307369042],[-73.9938293001897,40.7181527353787],[-73.99480923453,40.7184656848552],[-73.9944001068222,40.7194653668953],[-73.994236154042,40.7198597731566],[-73.9941695038695,40.7200201046905],[-73.9940740755062,40.7202517505849],[-73.9940429973311,40.7203292378557],[-73.9938393664085,40.7208404078525],[-73.9937973830576,40.7209457967628],[-73.9935287568436,40.7216415212146],[-73.9933632603039,40.7220882762592],[-73.993340617673,40.7221493997459],[-73.9932616055176,40.7223626853583],[-73.9930933467823,40.7228283442071],[-73.9926339942596,40.7240651249973],[-73.9926046665622,40.724144708338],[-73.9925334324796,40.7241228258664],[-73.9922000565,40.7240208688092],[-73.9913561722501,40.7237628783536],[-73.9912745150635,40.7237380721661],[-73.991025548712,40.7236576915716],[-73.9902750595322,40.7234342781819],[-73.9893936243823,40.7231823179655],[-73.9887582750528,40.7229786254787],[-73.9886400703013,40.7229419793501],[-73.9885450564783,40.7229118767105],[-73.9878663568281,40.7227053473738],[-73.9871372906696,40.7224780705798],[-73.986287182785,40.7222501786745],[-73.9858612842216,40.7221079916296],[-73.9855183037861,40.7219934843248],[-73.9846792437605,40.7217388637969],[-73.9838253142506,40.7214811310001],[-73.9830045276813,40.7212309403266],[-73.982167593432,40.7209771140394],[-73.9813096823452,40.7207170440263],[-73.9800820293944,40.7203475994582],[-73.979661657433,40.7202210880841],[-73.9787537885185,40.7199419659883],[-73.9780326649718,40.7196466065888],[-73.9772252314354,40.7193180346225],[-73.9767463948469,40.7192234925247],[-73.9764832621015,40.7191678875205],[-73.9763566901279,40.7191411434673],[-73.9761034252975,40.7190889525531],[-73.9755115655266,40.7189668712217],[-73.975453114243,40.718954818956],[-73.9754827518843,40.7188993664579],[-73.9750986364157,40.7188026917149],[-73.9750619496986,40.7187937101921]]]]},"properties":{"NTA2020":"MN0302","NTAName":"Lower East Side","NTAAbbrev":"LES"}},{"type":"Feature","geometry":{"type":"MultiPolygon","coordinates":[[[[-74.0109298593919,40.6844997228287],[-74.01193404661,40.6838959994611],[-74.0121774146499,40.6841034370946],[-74.0087873496517,40.6861548538325],[-74.0086970465296,40.6862015694472],[-74.0085994814429,40.6862608152833],[-74.0083559127454,40.6864084508615],[-74.0081655928105,40.6861829686624],[-74.0084266084422,40.6860237840165],[-74.0085143886243,40.6859708003228],[-74.0086021710326,40.6859178156611],[-74.0109298593919,40.6844997228287]]],[[[-74.0050051792208,40.6876142370508],[-74.0056313092716,40.6867924569111],[-74.0078343846407,40.6873933065155],[-74.0074215688152,40.688214542008],[-74.0050051792208,40.6876142370508]]],[[[-74.003821834375,40.6889378960732],[-74.004594149786,40.688223474194],[-74.0067858314956,40.6888351314736],[-74.0063660597629,40.689677920832],[-74.003821834375,40.6889378960732]]],[[[-74.0053435427351,40.6910998555604],[-74.0029770990643,40.6904348283293],[-74.0034106608259,40.6896215131049],[-74.0057604533752,40.6902446512463],[-74.0053435427351,40.6910998555604]]],[[[-74.0438790753783,40.6901959268209],[-74.0435074188495,40.6896956102502],[-74.042736796902,40.6900584421755],[-74.0427857918208,40.6901292277435],[-74.0427057419119,40.6901634553798],[-74.04255517865,40.6899710101874],[-74.0426407517849,40.6899364267066],[-74.0426952666689,40.6900055100991],[-74.0434689811675,40.6896452410433],[-74.0435178309371,40.6891992846524],[-74.0436422439846,40.6887748101517],[-74.0439760435488,40.6885906576986],[-74.0443866759227,40.6885244293476],[-74.0447854498304,40.6886039099625],[-74.0462768487851,40.6893356769786],[-74.0468043081313,40.6899615069891],[-74.0474779746001,40.6896196202944],[-74.0477310867907,40.6899235694868],[-74.0475871790836,40.6899907578701],[-74.0474327197679,40.6898121417428],[-74.0468935151013,40.6900673485495],[-74.0472017538758,40.6904330660448],[-74.0471119655849,40.6904786634187],[-74.0471172795342,40.6906640571553],[-74.0471846741515,40.6907556054557],[-74.0471963846258,40.6907715145271],[-74.0472147045574,40.6907987376381],[-74.0472271436771,40.6908278236205],[-74.0472333879493,40.6908580395872],[-74.047233280665,40.6908886264707],[-74.047226824821,40.6909188170321],[-74.0472141819493,40.690947851171],[-74.0471956697685,40.6909749993391],[-74.0471717550989,40.6909995805539],[-74.0471423696873,40.6910187681287],[-74.0471096006083,40.691034459487],[-74.0470741562771,40.6910463157432],[-74.0470368078696,40.6910540772317],[-74.0469983668522,40.6910575770244],[-74.0461731296913,40.6911062326531],[-74.0461485308465,40.6911308967766],[-74.0460786516211,40.6911265834038],[-74.0460098897329,40.691116165862],[-74.0459956436548,40.6911132070669],[-74.0459273870199,40.6910908547698],[-74.0458617338652,40.691064368038],[-74.0446076231792,40.6905817355595],[-74.0438790753783,40.6901959268209]]],[[[-74.0019946234316,40.6923369352695],[-74.001799842932,40.6922782682526],[-74.0018126654649,40.6922462656148],[-74.0020102734756,40.6923059618473],[-74.0020534673039,40.6922149444187],[-74.0021624003128,40.6922463937434],[-74.0020647434882,40.6924522537432],[-74.0019520538881,40.6924203280194],[-74.0019946234316,40.6923369352695]]],[[[-74.001970830317,40.6918514618269],[-74.0013270680718,40.6914713527298],[-74.0007005027771,40.6906201102576],[-74.0047956003446,40.6917698723703],[-74.0044108596554,40.6925370529416],[-74.001970830317,40.6918514618269]]],[[[-74.0167490111571,40.6933516202576],[-74.0154050412837,40.6930747498851],[-74.0153561130438,40.693233106244],[-74.0154106167833,40.6932469263353],[-74.0153906479993,40.6933063871829],[-74.0151762718046,40.6932649326231],[-74.0151907929235,40.6932068557197],[-74.0152561940283,40.6932151434937],[-74.015310610522,40.6930552951972],[-74.0152609596488,40.6930450665614],[-74.0151278260897,40.6931856839481],[-74.0151668313709,40.6932055405294],[-74.0151302333724,40.6932520478416],[-74.0150493480799,40.6932079981464],[-74.0149446001129,40.6931492740333],[-74.0149856292059,40.6931147691412],[-74.0150411885962,40.6931465518042],[-74.0151575713524,40.6930237668838],[-74.0142226807359,40.6928311575285],[-74.0134795477302,40.6921467219268],[-74.0134732867288,40.6921401047888],[-74.0134656925754,40.6921343541002],[-74.0134569664239,40.6921296220238],[-74.0134473449155,40.6921260373052],[-74.0134370836137,40.6921236944682],[-74.0134264570046,40.6921226565165],[-74.0134157513978,40.6921229513325],[-74.013405251913,40.692124571679],[-74.0125040365071,40.6923118322003],[-74.0125243471972,40.6923472840946],[-74.0124103387592,40.6925017803775],[-74.0124024379591,40.6925136103699],[-74.0123930652805,40.6925248011559],[-74.0123740503961,40.6925420246155],[-74.012351575677,40.6925566342538],[-74.0123262503392,40.6925682337776],[-74.0122987640649,40.6925765061309],[-74.0121196057387,40.6926146186477],[-74.0121187172753,40.6926148069485],[-74.0121050413299,40.692617717946],[-74.0120451414849,40.6926100689702],[-74.0118506497761,40.6925264495076],[-74.0118503421166,40.6925261253546],[-74.0118133059282,40.6924875881017],[-74.0118002610125,40.6924528467431],[-74.0117851945062,40.6924130185912],[-74.0117524196774,40.6923263655636],[-74.0117517805137,40.6923246636591],[-74.0117517911504,40.6923246015226],[-74.0117589395092,40.6922719919134],[-74.0118359169452,40.6921673083706],[-74.0118397834932,40.6921620489759],[-74.0118404576843,40.6921611294825],[-74.0118661360912,40.6921262148421],[-74.0119045469052,40.6920988352738],[-74.0119126376569,40.692097096446],[-74.0119703814141,40.6920847264071],[-74.0121377565644,40.6920488963634],[-74.0121387739685,40.6920486702273],[-74.0121443827133,40.6920474719529],[-74.012150308509,40.6920462016037],[-74.012202589906,40.6920531570378],[-74.0123257566771,40.6920994392919],[-74.0123609681188,40.6921160220667],[-74.0123914600465,40.6921313374165],[-74.0124100352555,40.6921424927727],[-74.0124307203643,40.6921624918378],[-74.0124628506633,40.6922208767353],[-74.0125412740255,40.6922052263004],[-74.012560439181,40.692201406034],[-74.0128297093739,40.6921476877292],[-74.0132248295746,40.6920674423893],[-74.0132434043053,40.6920636680032],[-74.0132492957867,40.6920624696424],[-74.0132866074616,40.6920556214397],[-74.0133045892755,40.6920509006728],[-74.0133126808857,40.6920477479407],[-74.013319494685,40.6920441541046],[-74.0133251264937,40.6920400750283],[-74.0133275146753,40.6920378315733],[-74.0133296330883,40.6920354530726],[-74.0133320920079,40.6920319786079],[-74.0133340906543,40.6920282223357],[-74.0133365025537,40.6920203506705],[-74.0133368448675,40.6920164613144],[-74.013336607503,40.692012715207],[-74.0133357798254,40.6920091762861],[-74.0133343819559,40.6920058886745],[-74.0133269142659,40.6919934552535],[-74.0133176600813,40.6919807491834],[-74.0132762687283,40.6919435987924],[-74.0132676543239,40.6919354330319],[-74.0132662106993,40.6919340545127],[-74.0132567360396,40.691925068483],[-74.0131880146865,40.691966180305],[-74.0129137369095,40.6916989832204],[-74.0129294535201,40.6916843562202],[-74.0128613206398,40.691611242182],[-74.0128983337943,40.6915851483693],[-74.0128966334141,40.6915835357407],[-74.0128766477398,40.6915645821755],[-74.012866922328,40.6915553539033],[-74.0128174007511,40.6915083787543],[-74.0127558176202,40.6914847192094],[-74.0126521664289,40.6914077115565],[-74.0126265666691,40.6914169896552],[-74.012610017798,40.6913723557295],[-74.0125857957997,40.691378901511],[-74.0125857982,40.6913916149569],[-74.0125465007197,40.6913998454374],[-74.0125563319857,40.6914312533667],[-74.0125337353868,40.6914372388405],[-74.0125209557935,40.6914050838041],[-74.0120356251226,40.6915113286204],[-74.0120189156843,40.6914664586927],[-74.0125989812837,40.6913425868707],[-74.0125292812604,40.6911545889227],[-74.0121849994641,40.6911444681085],[-74.0121882694497,40.6910862765935],[-74.0118272022737,40.6910730677252],[-74.0118299292017,40.6910196102741],[-74.0121964495859,40.6910370995962],[-74.0121969792651,40.6910288256239],[-74.0122116238182,40.6907999487071],[-74.0120855934571,40.6907888739938],[-74.0120837737103,40.6907681335621],[-74.0120547035256,40.690747395088],[-74.0120002081884,40.6907584626904],[-74.011989311517,40.6907805885383],[-74.0119729626536,40.6907792079528],[-74.011987482103,40.6907059208652],[-74.0119947411326,40.6906589052079],[-74.0119820165616,40.6906146598107],[-74.0120510471233,40.6906187994651],[-74.0120583031649,40.6905621059866],[-74.0121000836707,40.6905551883593],[-74.0121091626757,40.6905372113565],[-74.012129146741,40.6905372092516],[-74.0121436657143,40.6904625398541],[-74.012232761153,40.6904695823361],[-74.0123083326717,40.6892884347504],[-74.0127046586806,40.6887987914728],[-74.0127559610735,40.6887288077887],[-74.0131707132587,40.6881630214999],[-74.0132663162658,40.6881306811765],[-74.0133316490417,40.688101417738],[-74.0134200385449,40.6880604485002],[-74.0134738891093,40.6880203090152],[-74.0148824299061,40.687262821445],[-74.0160487561184,40.6873462575576],[-74.0160993423223,40.6873228434373],[-74.016520726646,40.6871278017685],[-74.0169829194977,40.6869156355697],[-74.0170513163852,40.6868842380462],[-74.0167172768357,40.6864538450735],[-74.0166480914219,40.6864245974111],[-74.0151530660651,40.6865330529879],[-74.0151497617361,40.6864954182494],[-74.0151485970357,40.6864821421276],[-74.0151453603181,40.6864452845233],[-74.0166211629269,40.6863280554159],[-74.0166749656764,40.6863134196841],[-74.0167825895156,40.6863572887765],[-74.0167749150582,40.6864070252744],[-74.0171224420303,40.6868515883617],[-74.0201580183541,40.6854580385574],[-74.0205451247874,40.685280317594],[-74.0202083179881,40.6848420826793],[-74.0201642410953,40.6848412673426],[-74.0194610251097,40.6851632087221],[-74.0193998751333,40.6850956543862],[-74.0209540018739,40.6843926828408],[-74.0210102310507,40.6844617897419],[-74.0202904516071,40.6847926975435],[-74.0202796493444,40.6848173852386],[-74.0206141239076,40.6852486404801],[-74.0210637152519,40.685049274408],[-74.0218405473955,40.6847047910238],[-74.0222422411637,40.6845266572322],[-74.0221838218444,40.6844564401214],[-74.0221901436462,40.6844533771546],[-74.02211999626,40.6843602009645],[-74.0221383836225,40.6843523224325],[-74.022209105935,40.6844454976],[-74.0222562281708,40.6844271135051],[-74.0221855059572,40.6843343751156],[-74.0221998713123,40.6843264964487],[-74.0222723163512,40.6844170471473],[-74.0222809367446,40.6844144213803],[-74.0222987619483,40.6844376052635],[-74.0223286427737,40.684426224175],[-74.022339567786,40.684438471747],[-74.0223096853233,40.6844520410879],[-74.0223369807842,40.6844846443064],[-74.0223987779194,40.6844572395556],[-74.022595048485,40.6843679467281],[-74.0221339538059,40.6837759213202],[-74.0230571996498,40.6829251953579],[-74.0231960803572,40.6830087477691],[-74.0223696873127,40.6837881677471],[-74.0227604427199,40.6842926986911],[-74.0230184968636,40.6841752941596],[-74.0231365496688,40.6841324060104],[-74.0232582353785,40.6840936647735],[-74.0233992208818,40.6840492201306],[-74.02341624615,40.6840438541053],[-74.0235430557981,40.6840112341193],[-74.0237841254672,40.6839771658173],[-74.0239488062918,40.68395746623],[-74.0242168250332,40.6839524933234],[-74.0244331833947,40.6839622802952],[-74.0246495449065,40.6839868163803],[-74.0248433091185,40.6840211914546],[-74.0249945133565,40.6840603616883],[-74.025217922776,40.6841022300697],[-74.0254698205421,40.6841611726658],[-74.0256732904973,40.6842447059588],[-74.025886471183,40.6843847772842],[-74.0260479856121,40.6845224015172],[-74.0261272348162,40.6846017611612],[-74.0262338363995,40.6847085108553],[-74.0263354962363,40.6848099476473],[-74.0264421191579,40.6849598749868],[-74.0265196827085,40.6851171832355],[-74.0265778623781,40.6852499136775],[-74.0266102086489,40.6853851075679],[-74.0266296442016,40.6855350557547],[-74.0266232362788,40.6856628842909],[-74.026610362678,40.6857710488972],[-74.0265716691302,40.6859136353067],[-74.0264974549545,40.6860636032939],[-74.0264272258257,40.6861835904071],[-74.0263776696184,40.6862395687156],[-74.0263141573217,40.686303366655],[-74.0262217075899,40.6863928177917],[-74.0261763342872,40.6864373225121],[-74.0260673023587,40.6865388171643],[-74.0257853233536,40.6868029572785],[-74.0255811721574,40.6870057076011],[-74.02538844537,40.6871751549376],[-74.0251893961024,40.6873644785707],[-74.0251557209944,40.6873957454712],[-74.0249859802794,40.6875533507451],[-74.0249614180979,40.6875764551534],[-74.0247504882217,40.6877952796215],[-74.0245653549392,40.6879729095975],[-74.0244583046282,40.6880688100918],[-74.0243406813395,40.688174060054],[-74.0243245385618,40.6881885077066],[-74.0241965668794,40.6883030169872],[-74.0241214285875,40.6883764948638],[-74.0239733759733,40.6885212761646],[-74.0239707009047,40.6885238008615],[-74.023812893981,40.6886727668702],[-74.0236758171516,40.6888005600236],[-74.02353789714,40.6889240217138],[-74.0233917936146,40.6890574995117],[-74.0231353996859,40.6893037058211],[-74.0226861124111,40.6897257227698],[-74.0225668317285,40.6898340095551],[-74.022441191404,40.689948071548],[-74.0222525931029,40.6901304702494],[-74.0219008737944,40.6904517238449],[-74.0214978503405,40.6908353014715],[-74.0214778121547,40.6908548742687],[-74.0212143721393,40.6911122169046],[-74.020981414311,40.6913326431365],[-74.0207211491628,40.6915892366223],[-74.0207176435588,40.6915924836038],[-74.0204653361815,40.6918262425564],[-74.0202067264838,40.6920421754965],[-74.019857691452,40.6929144850011],[-74.0197985179215,40.6930498143991],[-74.0197956975443,40.693054196781],[-74.0197690941132,40.6930888089727],[-74.0197345340259,40.693122359017],[-74.0196941696407,40.6931519171694],[-74.0196487899124,40.6931769078612],[-74.0195992784739,40.6931968419575],[-74.0195466006257,40.6932113311679],[-74.0195277100266,40.693215042688],[-74.0194371043978,40.6932294293163],[-74.0193451196968,40.6932372405587],[-74.0192525769996,40.6932384069351],[-74.0191603021326,40.6932329184009],[-74.0190138357144,40.6932280808258],[-74.0188672576938,40.6932259662342],[-74.0188521992193,40.6932259029647],[-74.0187985576109,40.6932259117405],[-74.0181930729798,40.6932630525689],[-74.0179618451272,40.693277235955],[-74.0173604376392,40.6933141232243],[-74.0167490111571,40.6933516202576]]],[[[-74.0015431738563,40.6927942155742],[-74.0017450663627,40.6924150021121],[-74.0040094065822,40.6932164525262],[-74.0037470660145,40.6936244559053],[-74.003454931737,40.6940598837855],[-74.0012715948409,40.6933043154246],[-74.0015431738563,40.6927942155742]]],[[[-74.0399518654558,40.7008988838268],[-74.039454086618,40.7005414134945],[-74.0393842386558,40.7005859479393],[-74.0377127051301,40.6993522925914],[-74.0380993186439,40.6990477587307],[-74.0382310015118,40.6983768449584],[-74.0390018956176,40.6983781423767],[-74.0393418340643,40.6981237669525],[-74.0399341786717,40.6985526751772],[-74.040257008798,40.6988130755717],[-74.0412440767822,40.6995449939831],[-74.0417491475314,40.6991561164861],[-74.0399139469643,40.6977102923071],[-74.0416619769992,40.6964612244876],[-74.0436751708273,40.6980286560932],[-74.0436383210866,40.6980564851049],[-74.0436579687546,40.6980723428842],[-74.0427054162594,40.6988088530908],[-74.0429665112644,40.6990076151853],[-74.0411000710565,40.700501196916],[-74.0408022648004,40.7002768024583],[-74.0403139674677,40.7006340024502],[-74.0402895457808,40.7006518663596],[-74.0399518654558,40.7008988838268]]],[[[-74.0163766471237,40.7048467396179],[-74.0162978013332,40.7048082710442],[-74.0162077661511,40.7048128511546],[-74.0158641419186,40.7048414470567],[-74.0156590163223,40.7048413427743],[-74.0153990358642,40.7048084038168],[-74.0152790942214,40.7047888660915],[-74.0151711507782,40.7047669123883],[-74.0149728025922,40.7047212310909],[-74.0148968714553,40.7047057737552],[-74.0147619303,40.7046793998458],[-74.0146291534311,40.7046472910443],[-74.0144989597896,40.7046095490632],[-74.0143717624009,40.7045662927272],[-74.0142906797105,40.7045573301252],[-74.0142721087724,40.7045284845359],[-74.0142600633177,40.7044976984328],[-74.014254876026,40.7044658200588],[-74.0142566890709,40.7044337264957],[-74.0143932178893,40.7036070378601],[-74.0144312816751,40.7031589023598],[-74.0144142501503,40.703084651884],[-74.0143887751506,40.7030118153641],[-74.0143550508775,40.7029409465853],[-74.0143133342396,40.7028725867161],[-74.0142639436669,40.7028072562042],[-74.0142072543766,40.7027454520762],[-74.0138358590151,40.7024139558334],[-74.0138208900467,40.7022449459371],[-74.0138109535839,40.702156128729],[-74.0138097791066,40.7021470967344],[-74.0138105155807,40.702138037495],[-74.0138131464883,40.7021291842455],[-74.0138176008806,40.7021207648238],[-74.0138237663927,40.702112995366],[-74.0138314845093,40.7021060749042],[-74.0138405564807,40.7021001826638],[-74.0138507480539,40.7020954690582],[-74.0138617989386,40.7020920556875],[-74.0138734239892,40.7020900299355],[-74.0138853262205,40.7020894440677],[-74.0139086114994,40.7020838733899],[-74.0139305437756,40.7020757211032],[-74.0139506332184,40.7020651709721],[-74.0139684290561,40.7020524571855],[-74.0139835337752,40.7020378652551],[-74.0139925099013,40.7020264366662],[-74.0140004143805,40.7020168317439],[-74.0140064929425,40.7020064850214],[-74.0140106273052,40.7019955973275],[-74.0140127382356,40.7019843784915],[-74.0139805763827,40.7015393259245],[-74.0138155050614,40.701314520405],[-74.0137491318274,40.7012086110182],[-74.0137245929784,40.7011412763512],[-74.0137092039048,40.7010785332007],[-74.0143406596046,40.7011409346764],[-74.0139529765566,40.70099923722],[-74.0140934342003,40.7005598710153],[-74.0141063535061,40.7005190825327],[-74.0140928996965,40.7005165897623],[-74.0141296618101,40.7004015358129],[-74.0141387138299,40.7004032087533],[-74.0141500569915,40.7003288250487],[-74.0141761237144,40.7002691448944],[-74.0142220824862,40.7001197442409],[-74.0143112638204,40.7001295496688],[-74.0143112665697,40.7001423549528],[-74.0141793295886,40.7005497279003],[-74.014166408237,40.7005473053128],[-74.0141538387786,40.7005861198362],[-74.0142906577462,40.7006523986354],[-74.0143030211079,40.7006404653127],[-74.0142979668905,40.7006374402199],[-74.0143167526587,40.7006192916629],[-74.0143194152353,40.7006207510618],[-74.0143692858215,40.7005543761953],[-74.0144495818554,40.700455625877],[-74.0145614505827,40.7003180405224],[-74.014576584377,40.7003251706634],[-74.0145857051763,40.7003167227029],[-74.0145837948069,40.7002921290552],[-74.0146343940746,40.7002056833616],[-74.0146726504549,40.7002186539712],[-74.0146686232322,40.7002476338692],[-74.0146553115247,40.7002508945191],[-74.0146100810182,40.7003179623177],[-74.0146097054443,40.7003319112999],[-74.0145536442787,40.7003912342438],[-74.0144948764176,40.7004534229309],[-74.0144939188878,40.7004629225549],[-74.0144863713199,40.7004694071933],[-74.0144800294335,40.700470335519],[-74.0144109247018,40.7005595849542],[-74.0143983508067,40.7005717344378],[-74.0143962568228,40.7005787325802],[-74.0143252945359,40.7006695580914],[-74.0146446834817,40.7008255577412],[-74.0147256990802,40.7007225477194],[-74.0147728750635,40.7006719049717],[-74.0148138160666,40.7006191035789],[-74.0148607175222,40.7005636971203],[-74.0149317769071,40.7004875225988],[-74.015000281046,40.700414374087],[-74.0150696336285,40.7003265110525],[-74.0150997739409,40.7003425200103],[-74.0150372482951,40.7004290854332],[-74.0150241615382,40.7004277895044],[-74.0150099562861,40.7004459636948],[-74.0149945966488,40.7004451012055],[-74.014969021741,40.7004736687827],[-74.0149764049547,40.7004784315318],[-74.0149502622895,40.7005026677148],[-74.0149440056446,40.7005143562756],[-74.0149246737639,40.7005234449526],[-74.0149189966016,40.7005338285946],[-74.0149252451045,40.700538593295],[-74.0149383299414,40.7005312335119],[-74.0149434416734,40.70053209734],[-74.0148874402992,40.7005883677008],[-74.014821493268,40.7006688738998],[-74.014728268053,40.700782269359],[-74.0147041001819,40.7008073688236],[-74.0146751069954,40.7008428626101],[-74.0148121761413,40.7009120845297],[-74.0148297924623,40.7009029969936],[-74.0150225868278,40.701000757703],[-74.0151437693268,40.7008511460368],[-74.0156792329099,40.7012642752301],[-74.0157949681688,40.7013551597991],[-74.0159117931219,40.7014692025699],[-74.0161175421936,40.7016390555453],[-74.0161403576801,40.7016542701014],[-74.0162459422829,40.7017609749313],[-74.0163935053385,40.7019059544585],[-74.0165166037146,40.7020255527736],[-74.016534037804,40.702044793312],[-74.0168200471912,40.7023468286244],[-74.0168980213934,40.7024301325722],[-74.0170054195338,40.7025627900847],[-74.0171385106246,40.7027195945019],[-74.0171465316225,40.7027136040021],[-74.0172532733664,40.7028438110834],[-74.0172471672732,40.7028467116471],[-74.0172547350961,40.7028544765278],[-74.0172949141796,40.7028956923316],[-74.0173198289651,40.7029271263572],[-74.0173998453078,40.7030273952964],[-74.0174414868652,40.7030857682807],[-74.017495263201,40.7031630969824],[-74.0175418345691,40.7032444142233],[-74.0175769374755,40.7033157573258],[-74.0175979311834,40.7033696407493],[-74.0176182643986,40.7034315028049],[-74.0176274701719,40.7034310142183],[-74.0176494271675,40.7035028536909],[-74.0176619029554,40.7035582332571],[-74.0176702643216,40.7035995672692],[-74.0177727320856,40.7035920700383],[-74.0177687530625,40.7035534350916],[-74.0178798447105,40.7035467631033],[-74.0178860803755,40.7035900371327],[-74.0178923362048,40.7036334615439],[-74.0177778450263,40.7036408121547],[-74.0177727358813,40.7036063053293],[-74.0176727721516,40.7036146819758],[-74.0176845570136,40.7037193862811],[-74.0176740969657,40.7037200443611],[-74.0176783475082,40.7037787579811],[-74.0176757387365,40.7038426217809],[-74.017667236276,40.7039074878542],[-74.0176593762781,40.70394091696],[-74.0176445172666,40.7039972264422],[-74.0176552403481,40.7040066351462],[-74.0176560716434,40.704017936442],[-74.0176453543768,40.7040305002255],[-74.0176354509141,40.7040330051663],[-74.0176280313638,40.7040317554921],[-74.0175718070875,40.7041921353369],[-74.0171326893192,40.7042907904757],[-74.0168474579883,40.7046431407005],[-74.0167717924094,40.7046404466149],[-74.0167012715647,40.7046414465328],[-74.0166387437108,40.7046416663094],[-74.0166299059998,40.7047521603766],[-74.0166290619594,40.7048076860514],[-74.0165218548344,40.7048079725459],[-74.0163766471237,40.7048467396179]]]]},"properties":{"NTA2020":"MN0191","NTAName":"The Battery-Governors Island-Ellis Island-Liberty Island","NTAAbbrev":"Btry_GvIsl"}},{"type":"Feature","geometry":{"type":"MultiPolygon","coordinates":[[[[-74.0007843972249,40.6942947687935],[-74.0009601293713,40.6940773368096],[-74.0030153830375,40.6947860976728],[-74.0026370133719,40.6953702903567],[-74.0023994725996,40.6957199088386],[-74.0002701681937,40.6949740559417],[-74.000702492374,40.6943961094455],[-74.0007843972249,40.6942947687935]]],[[[-73.9983790500946,40.6980715500009],[-73.9988726158842,40.6971658311786],[-74.0010504768284,40.6979164892103],[-74.0004891316,40.6987660319245],[-73.9983790500946,40.6980715500009]]],[[[-73.9980010201282,40.698805939878],[-73.9980224713505,40.6987699908925],[-74.0000198506194,40.6994743021567],[-73.9994760842564,40.7003310321469],[-73.9975004269745,40.6996471230089],[-73.9980010201282,40.698805939878]]],[[[-73.996291365507,40.7014334301788],[-73.9964997338286,40.7011531631099],[-73.9966188052055,40.700993262726],[-73.9966991344351,40.7008852315133],[-73.9968233353242,40.7009990372289],[-73.997529077534,40.7012370706906],[-73.9977615559501,40.701367669509],[-73.9978030724718,40.7013276488484],[-73.9981402443402,40.7015270425693],[-73.9961937170927,40.7033853965828],[-73.995887563188,40.7032683321215],[-73.9951397116016,40.7029823697487],[-73.9952615953187,40.7028184645473],[-73.9953859280211,40.7026512652389],[-73.9962178391291,40.7015323283294],[-73.996291365507,40.7014334301788]]],[[[-73.9950473705179,40.7031400949781],[-73.9954470880145,40.7032835612174],[-73.9952949109785,40.7035623211566],[-73.994983476294,40.7033899707532],[-73.9948018265736,40.703300213181],[-73.9950227891966,40.7031561239306],[-73.9950473705179,40.7031400949781]]],[[[-73.9947707859499,40.7039611496473],[-73.9948838427691,40.7037962809178],[-73.9949118752513,40.7038055718397],[-73.9949310902191,40.7037795704081],[-73.9950307034276,40.7038164552113],[-73.9948834921581,40.7040169089975],[-73.9948378189557,40.7039945940779],[-73.9947707859499,40.7039611496473]]],[[[-74.0123268864799,40.7188807107454],[-74.0126895123103,40.7173063526913],[-74.0127321194444,40.7171218865674],[-74.0129227276027,40.7164064738303],[-74.013026417511,40.7159603925306],[-74.0131038180491,40.71562740381],[-74.013219566317,40.7152164732437],[-74.0132567939139,40.7150728114237],[-74.0134404256727,40.71443867582],[-74.0137256014574,40.7136865663118],[-74.0130861082113,40.7134154529036],[-74.012548374292,40.7131751133465],[-74.011788690825,40.7128390041866],[-74.0116805790635,40.7127888045299],[-74.0101231248795,40.7120929526537],[-74.0088402445577,40.711512215318],[-74.0086023020815,40.7114004961531],[-74.008349057941,40.7113668014759],[-74.0079693260322,40.7114555890598],[-74.008030296532,40.7114612454331],[-74.0080903030787,40.7114712197917],[-74.0081488190505,40.7114854248249],[-74.0082053308373,40.7115037363011],[-74.0082175943655,40.7115303662355],[-74.0082238024787,40.7115581843752],[-74.0082237799258,40.7115864018862],[-74.0082175265999,40.7116142146123],[-74.0082052210929,40.7116408327917],[-74.0081872124152,40.7116654990679],[-74.0081640128991,40.7116875119039],[-74.0081362828167,40.711706245395],[-74.0081096774544,40.7117192128288],[-74.0080809048619,40.7117291456869],[-74.0080234696778,40.7117389166468],[-74.0079650386888,40.7117442778451],[-74.0079061965122,40.7117451752095],[-74.0078475301376,40.7117416005947],[-74.0077969784755,40.7117174406221],[-74.0077428227255,40.7116983318353],[-74.0076859279971,40.7116845794448],[-74.0076272067236,40.7116764049117],[-74.0075675997282,40.7116739387456],[-74.0075080596565,40.7116772196047],[-74.0070194477038,40.7117922096668],[-74.0061507831965,40.7119975974678],[-74.0060832924672,40.7120136688709],[-74.0060706229374,40.7120166853508],[-74.0057418942126,40.7120970142844],[-74.0055907767975,40.7121783099393],[-74.0054319273003,40.7122119525281],[-74.0052770667752,40.7122576966797],[-74.005128572629,40.7123150299133],[-74.0049886139774,40.7123831137839],[-74.0048591279836,40.7124607973875],[-74.0047079712697,40.7125822717722],[-74.0042925850868,40.7129160821478],[-74.0043433255129,40.7128278671104],[-74.0044129513279,40.7127059893337],[-74.0044906945091,40.7125549787717],[-74.0045019204952,40.7124130371191],[-74.0044649717902,40.712280390614],[-74.0044181368924,40.7122021299264],[-74.0042305176481,40.7120337459531],[-74.0040085109685,40.7118596716448],[-74.0039727070025,40.7118306269085],[-74.0039383033763,40.7118069113364],[-74.003732414695,40.7116649859778],[-74.0035323871877,40.71150062564],[-74.0034627552238,40.7114426897851],[-74.003275406517,40.7112926260259],[-74.003227073852,40.7112535191023],[-74.0027151900349,40.7108365318096],[-74.0026197841394,40.7107607650269],[-74.0016703987856,40.7100142806923],[-74.00150316915,40.7098843851756],[-74.0014207930728,40.7098230515113],[-74.0012255660873,40.7096652752056],[-74.0004759383183,40.7090597554399],[-74.0002075652903,40.7088429707741],[-74.0001369177462,40.7087873282923],[-74.0000662809705,40.7087316875677],[-73.9999597905531,40.7086478040588],[-73.9998708722243,40.7085777703343],[-73.999760440507,40.7084920775078],[-73.999496562867,40.7082873283119],[-73.999378264059,40.7081881814421],[-73.9993359450127,40.7081520166724],[-73.9992977594614,40.7081188235996],[-73.9992250780866,40.7080613074769],[-73.9991357944788,40.7079906527245],[-73.9991959568645,40.7079556322734],[-73.9992609011168,40.7079222768668],[-73.9993277730028,40.7078879317727],[-73.9993836976242,40.7078498053346],[-73.999422737929,40.7078271927956],[-73.9994617770239,40.7078045820443],[-73.9995246950948,40.7077708842845],[-73.9995135598256,40.7077569623326],[-73.9994920703076,40.7077300999864],[-73.999539842513,40.7077017259736],[-73.9995526594115,40.707702608525],[-73.999572940766,40.7077254536743],[-73.9996109261864,40.7077682289983],[-73.999884416305,40.7076323424266],[-73.9999500060074,40.7075997520651],[-73.9999465032925,40.707590882927],[-73.9999500060308,40.7075669464356],[-73.9999581593377,40.7075394547266],[-73.9999736730763,40.7075146546473],[-73.9999978962592,40.7074999033727],[-74.0001401347622,40.7074133101086],[-74.000235250934,40.7073553989636],[-74.0004017249293,40.7072685351685],[-74.0005539262632,40.7071925304688],[-74.0007731988238,40.7070884039636],[-74.0008511806432,40.7070513734807],[-74.0008840370849,40.7070335088863],[-74.0011882997256,40.7068680803856],[-74.0011327527608,40.7068073054279],[-74.0012251219401,40.7067535169295],[-74.0012335838909,40.7067485910412],[-74.0012284599416,40.7067431249914],[-74.0011618368414,40.7066719762725],[-74.0011766625864,40.7066570006155],[-74.0011705800808,40.7066477533252],[-74.0011778823626,40.7066433128283],[-74.0011774668796,40.7066358295821],[-74.0009842133495,40.706424968528],[-74.0014067770568,40.7061883898455],[-74.001408113017,40.7061876433051],[-74.0014072610053,40.7061868679751],[-74.0005938482722,40.7054183334489],[-74.0008466812725,40.705262773878],[-74.0014558210315,40.704881557767],[-74.0020566245936,40.705419605207],[-74.0020628726626,40.7054252594076],[-74.0020642677602,40.7054243318556],[-74.002124233346,40.7053872575997],[-74.0021596302508,40.7053653745074],[-74.0025710980177,40.7055318346227],[-74.0026865735678,40.7054575028528],[-74.0023642995541,40.7051672218971],[-74.0024171817288,40.7051375660479],[-74.0023853012176,40.7051095256809],[-74.0019721503947,40.7047461221118],[-74.0019715952277,40.7047394151101],[-74.002033460595,40.7047012089224],[-74.0021732966763,40.7046148517924],[-74.0021870702898,40.7046152738712],[-74.0023348929426,40.7047563901558],[-74.0023353779023,40.704750861004],[-74.0024220406286,40.704688588826],[-74.0024321577553,40.7046861131057],[-74.0024898454692,40.7047350276675],[-74.0024893487439,40.7047420147486],[-74.0023997738642,40.7048031803088],[-74.0023881538623,40.7048039189703],[-74.0033245200584,40.7056368500853],[-74.0035840704668,40.7054693840505],[-74.0036333182916,40.7054380618105],[-74.0036459094866,40.7054299396976],[-74.0038347228062,40.7053114982672],[-74.0036636252998,40.7051580143338],[-74.0035853564786,40.705200903668],[-74.0035540470817,40.7051746961483],[-74.0036323158923,40.7051318068352],[-74.0026304112037,40.704231208029],[-74.0028683447733,40.7040834805868],[-74.004058111836,40.7051556183393],[-74.0043419554056,40.7049709850722],[-74.0045876764334,40.7048077055608],[-74.0048420760213,40.7046480344074],[-74.0049218256234,40.7045992602085],[-74.0051894981704,40.7044287896779],[-74.0052130564128,40.7044137869876],[-74.0052618057307,40.7043827441282],[-74.0053517203142,40.7043183344792],[-74.0056647538078,40.7041124985208],[-74.0058927468274,40.7039681089136],[-74.0060219340251,40.7038831551445],[-74.0061425159086,40.7039892281606],[-74.0063436031915,40.7038580766151],[-74.006434040775,40.7037994437712],[-74.0065973673897,40.7036941574849],[-74.0063222558759,40.703475015362],[-74.0063162928191,40.7034695783989],[-74.0063017561867,40.7034564893556],[-74.0059129057583,40.7031063657614],[-74.005900865004,40.7030955251168],[-74.0058889201062,40.7030847700146],[-74.0055598808341,40.7027895112276],[-74.0054852881174,40.7027225761532],[-74.005528273739,40.702693542491],[-74.0055067604601,40.7026751010379],[-74.0054727553256,40.7026980828251],[-74.0054374454133,40.702667810188],[-74.0054287358833,40.7026736909423],[-74.0053055733095,40.7025681197653],[-74.0054957260304,40.702439635696],[-74.0055031083492,40.7024391220512],[-74.0056150661656,40.7025384962427],[-74.0056030791948,40.7025463150721],[-74.0056105006749,40.702561073201],[-74.0055962424553,40.7025762745375],[-74.005600799038,40.7025884222222],[-74.0055916777375,40.7025940688759],[-74.0055933933788,40.7026070901955],[-74.0055865427214,40.7026123044926],[-74.0055905440632,40.7026209852335],[-74.0055369094512,40.7026537754677],[-74.0055591682241,40.702672649125],[-74.0056766701924,40.7025923258251],[-74.0059857514542,40.7028682720463],[-74.006091209071,40.7029593749052],[-74.006240153343,40.7030880437724],[-74.0063651751464,40.7031960470228],[-74.0064617360072,40.7032794623602],[-74.0064957000499,40.703308802727],[-74.0065502556549,40.7033758697588],[-74.0065586564817,40.7033714036418],[-74.0067568639745,40.7035497439505],[-74.0067864699872,40.7035763811497],[-74.0069961079351,40.7034494432484],[-74.0072219144045,40.7033102317736],[-74.0075205008183,40.7031300742463],[-74.0075285983634,40.7031232361299],[-74.0076064295858,40.7030013953515],[-74.0076470000196,40.7029364288318],[-74.0076994357599,40.7028575332858],[-74.007957397812,40.7027007834324],[-74.0083629331281,40.7024527932991],[-74.0091118220234,40.7019921254411],[-74.0091434713295,40.7019811033648],[-74.0092921753184,40.7019383261356],[-74.0087010913042,40.7011481216627],[-74.0077569390176,40.7015562562487],[-74.0075928109433,40.701336334226],[-74.0085375633539,40.7009279496871],[-74.008350724263,40.7006776030039],[-74.0086218105459,40.7005604173687],[-74.0095862792474,40.7018456393201],[-74.011057487401,40.7014624358185],[-74.0111823320848,40.7014596465751],[-74.0111092032455,40.7012840186764],[-74.0112912888382,40.7012582355009],[-74.0112112069619,40.7010528374129],[-74.0111301350421,40.7010731509314],[-74.0110798295921,40.7009653743871],[-74.0110685345334,40.700923194584],[-74.0111103134351,40.7009096738701],[-74.0110953124931,40.7008746652055],[-74.0110948236617,40.7008595096328],[-74.0110801741779,40.7008602026377],[-74.0110572920426,40.7008197853498],[-74.0110608828549,40.7008108744367],[-74.0110389382101,40.7007653853702],[-74.0110168328164,40.7007493790836],[-74.0110309080602,40.700739424374],[-74.0110214462137,40.7007206496016],[-74.0110081299787,40.7007196414021],[-74.0109941774524,40.700698847208],[-74.0110099960677,40.7006918108943],[-74.0110050689097,40.700676320755],[-74.0109927937799,40.7006816052333],[-74.0109714212663,40.7006537904514],[-74.010989865939,40.7006424980694],[-74.0109597228513,40.7005828456131],[-74.0109376262851,40.7005840958255],[-74.0109262764678,40.7005750476566],[-74.0109270224703,40.7005640856507],[-74.0109485778957,40.7005459968141],[-74.0109206299609,40.7004947171005],[-74.0109064191062,40.7005000377739],[-74.010886075678,40.7004696816325],[-74.0109051133137,40.7004596346162],[-74.0107868287326,40.7002407681631],[-74.0108010422198,40.7002154669383],[-74.0108167554776,40.7002086981128],[-74.0108530226589,40.7002467647536],[-74.0109323818954,40.7004234062232],[-74.0110050935984,40.7005893636928],[-74.0110452218699,40.700691099716],[-74.0110757245721,40.7007565910355],[-74.0111058138567,40.7008189035782],[-74.0111350717181,40.7008761282994],[-74.011151785253,40.7009066540433],[-74.0113598122036,40.7008602122929],[-74.0113046389587,40.7006560986298],[-74.0112996137688,40.7006071382751],[-74.0113113138364,40.7005880543716],[-74.0113355432051,40.7005766073778],[-74.0113622718757,40.7005740643967],[-74.0113831684282,40.7005785117623],[-74.0113965305439,40.700598861115],[-74.0114341491013,40.7006827950255],[-74.0114709236502,40.7007571817769],[-74.0115043613257,40.7008233129538],[-74.0117307174637,40.7007783725538],[-74.0117015422945,40.700729792892],[-74.0116842030326,40.7007015987168],[-74.011666848307,40.7006458146477],[-74.0116329463016,40.7005636463416],[-74.0116116479955,40.7005012601063],[-74.0116155845848,40.7004808721125],[-74.0116329293418,40.7004664729711],[-74.0116794295439,40.7004700694092],[-74.0117046592784,40.7004892558605],[-74.0117275081284,40.7004868581717],[-74.0117527425183,40.7005390420809],[-74.0117787581239,40.7005792274797],[-74.0118276423357,40.700674596613],[-74.0118355261554,40.7006943881599],[-74.0118497196776,40.7007381795075],[-74.01185523513,40.7007471750561],[-74.0119930469287,40.7007130844941],[-74.0120881317341,40.7006895621718],[-74.0120865431616,40.7006727686867],[-74.012070772003,40.7006079874946],[-74.0120400177756,40.7005372104572],[-74.0119781564859,40.7003866782855],[-74.0119063302143,40.7002351835611],[-74.0118581754571,40.7001153573683],[-74.0119324124486,40.7000594630028],[-74.0119634103102,40.7000457990132],[-74.0120417294054,40.7000563457485],[-74.0120898708804,40.7000948375999],[-74.0121290445189,40.7001513406217],[-74.0121592409123,40.700219632284],[-74.0121739298375,40.7002413690966],[-74.0122383949076,40.7003295314119],[-74.0122563523897,40.7003729882209],[-74.0123200089953,40.7004965407053],[-74.0123636744357,40.7005840838191],[-74.0123930504508,40.7006287811844],[-74.0125953730827,40.7005790869642],[-74.0125920962324,40.7005201046736],[-74.0125561684908,40.7003679841694],[-74.0125304498656,40.7002605738732],[-74.0125173850387,40.7001929017999],[-74.0125165622026,40.7001587454596],[-74.0125434775341,40.7001432276032],[-74.0126152702434,40.7001165186663],[-74.0126495387469,40.7001233416878],[-74.0126821767755,40.7001550091115],[-74.0127364411642,40.7002270260881],[-74.0127976411407,40.7003083526634],[-74.0128359995458,40.7003611283136],[-74.0128678269727,40.7004157669405],[-74.0128833338127,40.7004499135295],[-74.0129061925864,40.7005051654972],[-74.0129102680554,40.7005318652272],[-74.0130035036395,40.7005242814216],[-74.0131089286037,40.7005157055892],[-74.0131130037701,40.7004803068902],[-74.013112981783,40.7003685452211],[-74.0130954089232,40.7002319467197],[-74.0130798850894,40.7001114959662],[-74.0130264066596,40.6998910845439],[-74.0130133431898,40.6998265102856],[-74.013022307099,40.699801672242],[-74.0130451513054,40.6997830389556],[-74.0131144886597,40.6997824187261],[-74.0131422395775,40.699811591258],[-74.0131552986356,40.6998531943343],[-74.013168366541,40.699939497937],[-74.01317898522,40.7000258009174],[-74.0131871663725,40.7001114837222],[-74.0132022924865,40.7002480815919],[-74.0132088178663,40.7002834700737],[-74.0132243296561,40.7003418394954],[-74.0132749449639,40.7005051235492],[-74.0134870581176,40.7004864771927],[-74.0134821351995,40.7003660252544],[-74.0134845653779,40.7002716413816],[-74.0135049465103,40.7001847134448],[-74.0135343001705,40.7001164142461],[-74.0135881438311,40.7000878436519],[-74.0136117476375,40.7000925523425],[-74.0136762427588,40.7001340754206],[-74.0136641986229,40.7001449100138],[-74.013644100865,40.7001700366904],[-74.0136132713496,40.7002534286764],[-74.0135719399631,40.7002404571769],[-74.0135627579529,40.7003033761494],[-74.01353455152,40.7003053786075],[-74.0135319276036,40.700319354866],[-74.0135627610001,40.7003183516676],[-74.0135617904079,40.7003747877841],[-74.0135309582006,40.7003817775875],[-74.0135329240764,40.7003902700871],[-74.0135644199077,40.7003882672418],[-74.0135611555485,40.700447189042],[-74.0135250677959,40.7004501919948],[-74.0135244089388,40.7004686687819],[-74.0135821496232,40.700465167994],[-74.0135868668491,40.7005101660327],[-74.0135542810963,40.7005116115955],[-74.0135785776503,40.7006519355483],[-74.0135118460957,40.7006586252035],[-74.0135597192626,40.7009481243331],[-74.0139529765566,40.70099923722],[-74.0143406596046,40.7011409346764],[-74.0137092039048,40.7010785332007],[-74.0137245929784,40.7011412763512],[-74.0137491318274,40.7012086110182],[-74.0138155050614,40.701314520405],[-74.0139805763827,40.7015393259245],[-74.0140127382356,40.7019843784915],[-74.0140106273052,40.7019955973275],[-74.0140064929425,40.7020064850214],[-74.0140004143805,40.7020168317439],[-74.0139925099013,40.7020264366662],[-74.0139835337752,40.7020378652551],[-74.0139684290561,40.7020524571855],[-74.0139506332184,40.7020651709721],[-74.0139305437756,40.7020757211032],[-74.0139086114994,40.7020838733899],[-74.0138853262205,40.7020894440677],[-74.0138734239892,40.7020900299355],[-74.0138617989386,40.7020920556875],[-74.0138507480539,40.7020954690582],[-74.0138405564807,40.7021001826638],[-74.0138314845093,40.7021060749042],[-74.0138237663927,40.702112995366],[-74.0138176008806,40.7021207648238],[-74.0138131464883,40.7021291842455],[-74.0138105155807,40.702138037495],[-74.0138097791066,40.7021470967344],[-74.0138109535839,40.702156128729],[-74.0138208900467,40.7022449459371],[-74.0138358590151,40.7024139558334],[-74.0142072543766,40.7027454520762],[-74.0142639436669,40.7028072562042],[-74.0143133342396,40.7028725867161],[-74.0143550508775,40.7029409465853],[-74.0143887751506,40.7030118153641],[-74.0144142501503,40.703084651884],[-74.0144312816751,40.7031589023598],[-74.0143932178893,40.7036070378601],[-74.0142566890709,40.7044337264957],[-74.014254876026,40.7044658200588],[-74.0142600633177,40.7044976984328],[-74.0142721087724,40.7045284845359],[-74.0142906797105,40.7045573301252],[-74.0143717624009,40.7045662927272],[-74.0144989597896,40.7046095490632],[-74.0146291534311,40.7046472910443],[-74.0147619303,40.7046793998458],[-74.0148968714553,40.7047057737552],[-74.0149728025922,40.7047212310909],[-74.0151711507782,40.7047669123883],[-74.0152790942214,40.7047888660915],[-74.0153990358642,40.7048084038168],[-74.0156590163223,40.7048413427743],[-74.0158641419186,40.7048414470567],[-74.0162077661511,40.7048128511546],[-74.0162978013332,40.7048082710442],[-74.0163766471237,40.7048467396179],[-74.0165218548344,40.7048079725459],[-74.0166290619594,40.7048076860514],[-74.0166299059998,40.7047521603766],[-74.0166387437108,40.7046416663094],[-74.0167012715647,40.7046414465328],[-74.0167717924094,40.7046404466149],[-74.0168474579883,40.7046431407005],[-74.0171326893192,40.7042907904757],[-74.0175718070875,40.7041921353369],[-74.0177959952758,40.7042431518031],[-74.0178573071774,40.7040871016217],[-74.0177519998537,40.7040631372839],[-74.017792844091,40.7039591677878],[-74.0178190374163,40.7039461774542],[-74.0178392782478,40.7039709203835],[-74.0178096684274,40.7040402184532],[-74.0179137447301,40.7040627511162],[-74.0179441440188,40.703981431064],[-74.0179561905908,40.7039840406694],[-74.0178458623117,40.704250294145],[-74.0184484982239,40.7041706091872],[-74.0186603168338,40.7044370337734],[-74.0175179154039,40.7045888793221],[-74.0174823563413,40.7046755148594],[-74.0175331563624,40.7046791271886],[-74.0175494130064,40.7046719134129],[-74.0175595780968,40.7046739767358],[-74.0175717664536,40.7046708789162],[-74.0175751508686,40.7046760383316],[-74.0175683821584,40.7046796405115],[-74.01759953712,40.7046925274775],[-74.0176357825036,40.7046869621696],[-74.0176771606694,40.7046889333453],[-74.0176881540679,40.7046820463435],[-74.0177198314002,40.7046879533302],[-74.0177347056253,40.7046795879866],[-74.017750868186,40.7046835225322],[-74.0177670206296,40.7046805690627],[-74.0177683226578,40.7046731846655],[-74.0177851247275,40.7046790921287],[-74.0177993481274,40.7046751573951],[-74.0178077612601,40.7046702402001],[-74.0178303843761,40.7046731840723],[-74.0178413773633,40.7046692498339],[-74.0179034401173,40.7046599027898],[-74.0179118423466,40.7046672865792],[-74.0179428805578,40.7046638381875],[-74.017945471182,40.7046564625924],[-74.0179706763818,40.7046554716986],[-74.0179803788979,40.7046490783508],[-74.0179907213474,40.7046549858926],[-74.0179997732044,40.7046579399568],[-74.0180094755702,40.7046466199069],[-74.0180256390723,40.7046540051748],[-74.0180443812936,40.7046362918733],[-74.0180553757254,40.7046377597842],[-74.0180665454181,40.7046440805243],[-74.0181144810168,40.7045618562668],[-74.0188643413597,40.7047278613057],[-74.0188889318731,40.7047373972937],[-74.0189271758202,40.7047820176705],[-74.0193430094545,40.7060787924754],[-74.0193439983282,40.7061019264516],[-74.0192238752441,40.7065813429054],[-74.0191242120845,40.7069840700503],[-74.0191040076773,40.7070086924888],[-74.0190930037576,40.7070127277056],[-74.0190676237415,40.7070220251915],[-74.0190348319943,40.7070214461875],[-74.0189550464275,40.7070050241204],[-74.0189472435277,40.7070260253326],[-74.018938858305,40.7070424619475],[-74.0189280572462,40.7070525125318],[-74.0189106678139,40.7070725976963],[-74.0188860722028,40.7070940600225],[-74.0188608817819,40.7071086704491],[-74.0188308894724,40.7071237418173],[-74.0187979013336,40.7071360743112],[-74.0187625103513,40.7071461216892],[-74.0187277215831,40.70715161147],[-74.0186911204973,40.7071506988981],[-74.0186569334364,40.7071497940279],[-74.0186320353695,40.7071479700229],[-74.0185822358053,40.7071320030009],[-74.0185486374159,40.7071160252428],[-74.0185726266762,40.7070881775599],[-74.0186086282989,40.7071036956617],[-74.0186356225252,40.7071114537028],[-74.0186458235814,40.7071137312451],[-74.0186494143029,40.7070899922808],[-74.0186884060886,40.7070922642501],[-74.0187226052414,40.7070899803979],[-74.0187519989638,40.7070881484749],[-74.0187633922155,40.7070840393853],[-74.0187513857986,40.7070580174614],[-74.0187753836209,40.7070525375388],[-74.0187957799098,40.7070406654686],[-74.0188215709409,40.7070242278202],[-74.0188401564861,40.7070032248519],[-74.0188497500249,40.7069913455348],[-74.0188503499152,40.7069785680793],[-74.0188125528485,40.7069744670308],[-74.0187999666081,40.7069904432604],[-74.0187771678701,40.7070055134395],[-74.018743576945,40.7070160179781],[-74.0187243817064,40.707015111586],[-74.0186961838301,40.7070192234028],[-74.0186799860589,40.7070269875412],[-74.0186493964182,40.7070260739802],[-74.0186295971986,40.7070192342001],[-74.0186139969312,40.7070055399447],[-74.0186061964163,40.7069973186358],[-74.0186043937891,40.7069831727926],[-74.0185929832346,40.7069676489182],[-74.0185809803057,40.7069580694146],[-74.0185731777267,40.706946653089],[-74.0185707836023,40.7069288503635],[-74.0185659752987,40.7069146950988],[-74.0185503793898,40.7069165256518],[-74.018536584443,40.7069265775825],[-74.0185317902772,40.7069589877625],[-74.018407942662,40.7072661279693],[-74.0182187160203,40.7077504603174],[-74.0182184463373,40.7077595645301],[-74.0181917441952,40.7078298806819],[-74.0186570222807,40.7079322033474],[-74.0186483428316,40.7079550687373],[-74.0188020824405,40.707988876837],[-74.0188334111897,40.7080074213482],[-74.0188354119296,40.7080104746548],[-74.0188549299394,40.7080302674],[-74.0188564613271,40.7080557894417],[-74.0187483506634,40.7084888350803],[-74.018632876214,40.7089493554825],[-74.0184702730985,40.7095978262987],[-74.0183428177939,40.7101147310655],[-74.0182655444337,40.7104172520421],[-74.01814625557,40.7108969056012],[-74.0181120305986,40.7110378841877],[-74.0180475488513,40.7113527570772],[-74.017979984977,40.7117645749009],[-74.0179236944906,40.7120474980862],[-74.0178747862837,40.7123234006052],[-74.0177715942797,40.7128428312172],[-74.0177543788182,40.7128565837729],[-74.0177332900854,40.7128575685807],[-74.0177216674343,40.7128529867709],[-74.0177229412777,40.7127924002096],[-74.01780183074,40.7123533800118],[-74.0166256966868,40.7121655742677],[-74.0165460903063,40.7124642941883],[-74.0165937277031,40.7125564266962],[-74.0166196289524,40.7126580194883],[-74.0166198531181,40.712764406701],[-74.0165929465532,40.7128698198719],[-74.0165569404328,40.7129373516576],[-74.0165425740427,40.712963820635],[-74.0164786944591,40.7130377491239],[-74.0163931472927,40.7131082542212],[-74.0163215186837,40.7134162390676],[-74.0165425986928,40.7134493093791],[-74.0169121385086,40.7135045839534],[-74.0175809775159,40.7136037461307],[-74.0176565469605,40.7131693182911],[-74.0176718684107,40.7130774638442],[-74.0176741610835,40.7130742522708],[-74.0176771071063,40.7130713656814],[-74.0176806283915,40.7130688806315],[-74.0176846326479,40.7130668637728],[-74.0176890145622,40.7130653664506],[-74.0176936569839,40.7130644301063],[-74.0176984380245,40.7130640790727],[-74.017703229874,40.7130643223741],[-74.0177075603124,40.7130650700325],[-74.0177116944276,40.7130663039966],[-74.0177155387196,40.7130679954647],[-74.0177190056029,40.7130701057283],[-74.0177220169576,40.7130725888733],[-74.0177245053119,40.7130753872776],[-74.0177264150268,40.7130784379139],[-74.0177083251186,40.7131775392039],[-74.0176197856584,40.713662580465],[-74.0175386696335,40.7141057980809],[-74.0174101658544,40.7148150561216],[-74.0173842661929,40.7149496899626],[-74.0173836847092,40.7149527175668],[-74.0173271618265,40.7152631698814],[-74.0172656677204,40.7156009380845],[-74.0171226757789,40.7163800495224],[-74.0169841952,40.717138900356],[-74.0168644256079,40.717795211615],[-74.0167116378904,40.7186324336632],[-74.0166956436874,40.7186571009551],[-74.0166609214924,40.718674278713],[-74.0166314154636,40.718673626508],[-74.0159484035977,40.718583806332],[-74.0159452823134,40.7185975125279],[-74.0156702887789,40.7185627455771],[-74.0156720719971,40.7185460048518],[-74.0155523289275,40.718530190125],[-74.0150020583486,40.7184574929352],[-74.0149976490754,40.7184812579712],[-74.0149912656585,40.7185156042577],[-74.0149847835255,40.7185320484159],[-74.0149718145705,40.7185441088341],[-74.0149466067586,40.7185517925605],[-74.0147041524212,40.71852441226],[-74.0132146781412,40.718323977252],[-74.0130695066156,40.7189304513409],[-74.0130738286235,40.7189468761532],[-74.0130321318771,40.7191397133964],[-74.0127031298361,40.7191000322802],[-74.0125561386882,40.7190781200888],[-74.012442542283,40.7190659305134],[-74.01229311021,40.7190472069558],[-74.0123268864799,40.7188807107454]]]]},"properties":{"NTA2020":"MN0101","NTAName":"Financial District-Battery Park City","NTAAbbrev":"FiDi"}},{"type":"Feature","geometry":{"type":"Polygon","coordinates":[[[-73.9844979115318,40.7095179209524],[-73.9863997311982,40.7093348402909],[-73.9881477042932,40.7091674233287],[-73.9881569030887,40.7091573982822],[-73.9883920828812,40.7091352054616],[-73.9884479770407,40.7091420768453],[-73.9884811153664,40.70916410361],[-73.9884987144243,40.7091845621006],[-73.9886380228328,40.7099203179604],[-73.9886467777147,40.7099251903434],[-73.9886689485946,40.7099282912754],[-73.9886975455081,40.7099367067924],[-73.9887191532548,40.709955346967],[-73.9887382598856,40.7099789987999],[-73.9887986206875,40.7099748639215],[-73.98889990267,40.7099629922084],[-73.9893590993113,40.7099092431245],[-73.9894621132315,40.7098975434621],[-73.9895759391599,40.709882338513],[-73.9897465946832,40.7098570185511],[-73.9901596969885,40.7097986290307],[-73.9905156471322,40.7097421404622],[-73.9907905736362,40.7096977624112],[-73.991069278168,40.709665485649],[-73.9913525359969,40.7096285889952],[-73.9917040460002,40.7095735192247],[-73.9917692395571,40.7095633112855],[-73.9919068874626,40.7095336523335],[-73.9920407135239,40.7095251754102],[-73.9920927602162,40.7095164786451],[-73.9921501335758,40.7095068653441],[-73.9923626053393,40.7094726255399],[-73.9928499115777,40.7093901338313],[-73.9937415729908,40.7092543770727],[-73.9940096460943,40.7092457365452],[-73.9941420764995,40.7092415235181],[-73.994379680009,40.7092008953008],[-73.9945804442674,40.7091392289928],[-73.9951772185137,40.7090425498532],[-73.9960204290358,40.7089244798376],[-73.9966654552452,40.7088351609703],[-73.9972843174275,40.7087398757526],[-73.9980849575846,40.7085178717078],[-73.9982874689805,40.708438187283],[-73.9985290316991,40.7083397836959],[-73.9985625920619,40.7083235385142],[-73.9987234254532,40.7082457086585],[-73.9987554116206,40.7082319062831],[-73.9988099086944,40.7082083902421],[-73.9988230301405,40.7081837369216],[-73.9988827545862,40.7081448896568],[-73.9989848556099,40.7081009090409],[-73.9990542133816,40.7080408010743],[-73.9991357938877,40.7079906526438],[-73.9992250786639,40.7080613078321],[-73.9992977596005,40.7081188237005],[-73.9993359455668,40.7081520169078],[-73.9993782634906,40.7081881810502],[-73.9994965631576,40.7082873280141],[-73.9997604403546,40.7084920777919],[-73.9998708723771,40.7085777705854],[-73.9999597899697,40.70864780384],[-74.0000662813928,40.7087316871504],[-74.0001369174934,40.7087873283596],[-74.0002075651596,40.7088429712003],[-74.0004759381124,40.70905975513],[-74.0012255659604,40.7096652751666],[-74.0014207924835,40.7098230517488],[-74.0012840321538,40.7100023094897],[-74.0012362117836,40.7100635890661],[-74.0011379130467,40.7101842207855],[-74.0010047011906,40.7103622868659],[-74.0009077822297,40.7104860874811],[-74.000797823302,40.7106265433077],[-74.0006591918761,40.7108090270386],[-74.0005113062928,40.7109925266913],[-74.0005507171466,40.7110307316833],[-74.000588117401,40.7110700896123],[-74.0006234488665,40.7111105392467],[-74.0006566565716,40.7111520176561],[-74.0006876888487,40.7111944603095],[-74.0007164974143,40.7112378011757],[-74.0007430374442,40.711281972826],[-74.0007672676435,40.7113269065388],[-74.0007891502947,40.7113725325472],[-74.0008086513567,40.7114187797262],[-74.000825740485,40.7114655761249],[-74.0008403910872,40.7115128489377],[-74.0008525803647,40.7115605246176],[-74.0008622893483,40.7116085289909],[-74.0008695029272,40.7116567873721],[-74.0008742098732,40.7117052246805],[-74.0008931088744,40.7130075149755],[-74.0008949894828,40.7130382074132],[-74.0008978487614,40.7130556712419],[-74.0009331889173,40.7132715097151],[-74.0012584663957,40.7135050353717],[-74.0015678026164,40.7136913207292],[-74.0009698507899,40.7139138529089],[-74.000747969764,40.714518610659],[-74.0004560766074,40.7143733045013],[-74.0005287947863,40.7151783164229],[-74.0007909975325,40.7152992254735],[-74.0005798384419,40.7155791605612],[-74.0001396559167,40.7162079878353],[-73.9999324236919,40.7165521716182],[-73.9994498284893,40.717338054617],[-73.9993138627765,40.717558499344],[-73.9985907014167,40.7171077690408],[-73.9977643053727,40.7168221861008],[-73.9969851980039,40.7165488006225],[-73.9960601716568,40.7162398981358],[-73.9958105674303,40.7166529177225],[-73.9954302035228,40.7172875006976],[-73.9948092341603,40.7184656847552],[-73.9938293002601,40.7181527354278],[-73.9930957657431,40.7179307370942],[-73.9922220872431,40.7176667046015],[-73.9914241703894,40.7174258347442],[-73.9913055971306,40.7173899397499],[-73.9911776754074,40.7173512179063],[-73.9907043433416,40.7172088637255],[-73.9899516343093,40.7169802333362],[-73.9891560808597,40.7167169045296],[-73.9897556245652,40.7155606058509],[-73.9902038026561,40.7146726882135],[-73.990222998533,40.7145870137118],[-73.9902289532058,40.7144999273386],[-73.9902215695927,40.7144131971671],[-73.9893380076996,40.714141633261],[-73.9887033550589,40.7141937984418],[-73.9884061324518,40.7142183092542],[-73.9876683445612,40.7142790795709],[-73.9871677222595,40.7143203149037],[-73.9858558177571,40.7144283931917],[-73.9856727194392,40.7144435557007],[-73.9855864941271,40.7144506626574],[-73.9853454855094,40.7144698356839],[-73.9852298881521,40.7138011837603],[-73.9850665346256,40.7138151763212],[-73.9851152483633,40.7133595142682],[-73.9850591430548,40.7130859749658],[-73.9850327259178,40.7129081411287],[-73.9850260626305,40.7128632880922],[-73.9849518609379,40.7123637871129],[-73.9848542494506,40.7117063998159],[-73.9847855015959,40.7112370461947],[-73.9847042284599,40.7107102726212],[-73.9846850555654,40.7106133387566],[-73.9846760352091,40.7105718340708],[-73.9846663551148,40.7105224297257],[-73.984656686044,40.7104730188475],[-73.9844979115318,40.7095179209524]]]},"properties":{"NTA2020":"MN0301","NTAName":"Chinatown-Two Bridges","NTAAbbrev":"Chntwn"}},{"type":"Feature","geometry":{"type":"Polygon","coordinates":[[[-74.0028187132835,40.7283713893687],[-74.0027215450175,40.7283310755838],[-74.0026254436529,40.7282869020459],[-74.0024240950797,40.7281837974993],[-74.0021503618662,40.7280436260233],[-74.0013917826377,40.7276682620698],[-74.0006338389132,40.7272948720886],[-73.9999172380488,40.7269429728185],[-73.9991196936547,40.7265505724249],[-73.9983626383991,40.7261757280539],[-73.9976116412075,40.7258053983471],[-73.9967732034344,40.7254402027026],[-73.9958472202744,40.7252166131729],[-73.9953305238902,40.7250919994136],[-73.9949097182627,40.7249594893957],[-73.9941807487589,40.7247006664602],[-73.9934591355185,40.7244411548038],[-73.9926732685139,40.7241685135166],[-73.992604666891,40.7241447087758],[-73.992633994454,40.7240651247308],[-73.9930933463728,40.7228283441864],[-73.9932616056371,40.7223626849981],[-73.9933406174505,40.7221493993501],[-73.9933632600937,40.7220882764983],[-73.9935287574076,40.7216415209406],[-73.9937973829053,40.7209457963921],[-73.9938393662828,40.720840407526],[-73.9940429971595,40.7203292381175],[-73.9940740758123,40.7202517501862],[-73.9941695041029,40.7200201044814],[-73.9942361543324,40.7198597732617],[-73.9944001069035,40.7194653670404],[-73.9948092341603,40.7184656847552],[-73.9954302035228,40.7172875006976],[-73.9958105674303,40.7166529177225],[-73.9960601716568,40.7162398981358],[-73.9969851980039,40.7165488006225],[-73.9977643053727,40.7168221861008],[-73.9985907014167,40.7171077690408],[-73.9993138627765,40.717558499344],[-73.9999576542157,40.7180253527227],[-74.0005334014312,40.7184384972129],[-74.0012741801105,40.7189696842203],[-74.0014020029206,40.7190608784892],[-74.0018855093649,40.7194058286287],[-74.0026014654083,40.7199116837403],[-74.0032609977017,40.7203853537404],[-74.0035133116948,40.7205646104001],[-74.0039307312685,40.7208626931124],[-74.0046366094957,40.7213618913658],[-74.0052286096689,40.7217523617463],[-74.0053113088138,40.7218324500067],[-74.0059143469443,40.7222612074214],[-74.0062998656422,40.722557761969],[-74.0076304898853,40.7235059620155],[-74.0079135088906,40.7237080257373],[-74.0080798011965,40.7238351217552],[-74.0083036119111,40.7239860675291],[-74.0085723591588,40.7241776138209],[-74.0086452548314,40.7242295760015],[-74.0093190538631,40.7247098105082],[-74.0097329732442,40.72499863019],[-74.0100548355977,40.725252710572],[-74.0108138319034,40.7257980613332],[-74.0109242227943,40.7258024101226],[-74.0109407951006,40.7256928800911],[-74.0109441806039,40.7256705012167],[-74.0110576456771,40.725156669526],[-74.0111239596005,40.7248287397959],[-74.0111507145114,40.7246964306284],[-74.0112361593529,40.724273891416],[-74.011355733541,40.7242854417077],[-74.0114407797951,40.7242927272333],[-74.0115926764857,40.724305862718],[-74.0119657716092,40.7243381231932],[-74.0118148469676,40.7250862654111],[-74.0116556021521,40.7258756328337],[-74.0116547168112,40.7258800206152],[-74.0119597819642,40.7259858574896],[-74.0123173355084,40.7260421015551],[-74.0141174057032,40.7262241215452],[-74.014779667622,40.7262899657103],[-74.0151646934472,40.7263279711677],[-74.01520571759,40.7263702081148],[-74.0151901020988,40.7264594412582],[-74.0151722924789,40.726587648934],[-74.0151447075132,40.726718785085],[-74.0151250177736,40.7268022013872],[-74.0143081679784,40.7267163795286],[-74.0134182269292,40.7266292900621],[-74.0123459990328,40.7265276893489],[-74.0115434700871,40.7264556058076],[-74.0113846863351,40.7282375321049],[-74.0110061795312,40.7282014984169],[-74.0108722832019,40.7281887534835],[-74.0107693651372,40.7281822180588],[-74.0106443485381,40.7281803676275],[-74.0105501722,40.7291089427859],[-74.0093510701075,40.7289958158555],[-74.0085941698261,40.7289235373552],[-74.0070916575341,40.7287805133481],[-74.0053151405991,40.7286127546085],[-74.0031291215029,40.7284020616718],[-74.0028187132835,40.7283713893687]]]},"properties":{"NTA2020":"MN0201","NTAName":"SoHo-Little Italy-Hudson Square","NTAAbbrev":"SoHo"}},{"type":"Feature","geometry":{"type":"Polygon","coordinates":[[[-73.9993138627765,40.717558499344],[-73.9994498284893,40.717338054617],[-73.9999324236919,40.7165521716182],[-74.0001396559167,40.7162079878353],[-74.0005798384419,40.7155791605612],[-74.0007909975325,40.7152992254735],[-74.0005287947863,40.7151783164229],[-74.0004560766074,40.7143733045013],[-74.000747969764,40.714518610659],[-74.0009698507899,40.7139138529089],[-74.0015678026164,40.7136913207292],[-74.0012584663957,40.7135050353717],[-74.0009331889173,40.7132715097151],[-74.0008978487614,40.7130556712419],[-74.0008949894828,40.7130382074132],[-74.0008931088744,40.7130075149755],[-74.0008742098732,40.7117052246805],[-74.0008695029272,40.7116567873721],[-74.0008622893483,40.7116085289909],[-74.0008525803647,40.7115605246176],[-74.0008403910872,40.7115128489377],[-74.000825740485,40.7114655761249],[-74.0008086513567,40.7114187797262],[-74.0007891502947,40.7113725325472],[-74.0007672676435,40.7113269065388],[-74.0007430374442,40.711281972826],[-74.0007164974143,40.7112378011757],[-74.0006876888487,40.7111944603095],[-74.0006566565716,40.7111520176561],[-74.0006234488665,40.7111105392467],[-74.000588117401,40.7110700896123],[-74.0005507171466,40.7110307316833],[-74.0005113062928,40.7109925266913],[-74.0006591918761,40.7108090270386],[-74.000797823302,40.7106265433077],[-74.0009077822297,40.7104860874811],[-74.0010047011906,40.7103622868659],[-74.0011379130467,40.7101842207855],[-74.0012362117836,40.7100635890661],[-74.0012840321538,40.7100023094897],[-74.0014207924835,40.7098230517488],[-74.0015031693391,40.7098843852055],[-74.0016703984314,40.7100142810322],[-74.0026197837413,40.7107607653565],[-74.0027151898662,40.7108365317704],[-74.0032270736543,40.7112535194698],[-74.0032754065483,40.7112926259484],[-74.0034627551207,40.7114426898318],[-74.0035323869644,40.7115006252609],[-74.0037324142494,40.7116649857375],[-74.0039383033806,40.7118069111144],[-74.0039727071224,40.7118306268988],[-74.0040085107636,40.7118596718261],[-74.0042305175197,40.7120337460555],[-74.0044181370542,40.7122021296159],[-74.004464972022,40.7122803908976],[-74.0045019200323,40.7124130366707],[-74.0044906941041,40.7125549792206],[-74.0044129508622,40.7127059897258],[-74.0043433258556,40.7128278669249],[-74.0042925855631,40.7129160821782],[-74.0047079709173,40.7125822715726],[-74.0048591283392,40.7124607974901],[-74.0049886140639,40.7123831135302],[-74.0051285730664,40.7123150300977],[-74.0052770671699,40.7122576968141],[-74.0054319270287,40.7122119525565],[-74.0055907770002,40.7121783100477],[-74.0057418944101,40.7120970143125],[-74.0060706228268,40.7120166856598],[-74.0060832923242,40.7120136684993],[-74.0061507833346,40.7119975977307],[-74.0070194477735,40.7117922094873],[-74.0075080599962,40.7116772197621],[-74.0075526710009,40.7116742204717],[-74.0075974547455,40.7116744536474],[-74.0076420076354,40.7116779171878],[-74.0076859281563,40.711684579879],[-74.0077288204714,40.7116943812374],[-74.0077702981068,40.7117072333677],[-74.0078099872614,40.7117230204454],[-74.0078475302513,40.7117416001959],[-74.0079061963676,40.7117451755158],[-74.0079650385213,40.7117442780776],[-74.0080234692448,40.7117389168409],[-74.0080809051783,40.7117291453313],[-74.0081096777507,40.7117192127728],[-74.0081362827533,40.7117062451765],[-74.0081640129442,40.7116875115137],[-74.0081872121558,40.7116654986629],[-74.0082052207117,40.7116408325704],[-74.0082175265363,40.7116142146279],[-74.0082237797151,40.7115864017282],[-74.0082238024442,40.7115581847419],[-74.008217594085,40.7115303660294],[-74.008205331182,40.7115037366247],[-74.008148819395,40.7114854250442],[-74.0080903028384,40.7114712198995],[-74.0080302963583,40.7114612451517],[-74.0079693261914,40.7114555891903],[-74.0083490583032,40.7113668015903],[-74.0086023026294,40.7114004957431],[-74.0088402440213,40.7115122153896],[-74.0101231244852,40.7120929525059],[-74.0116805788138,40.7127888042958],[-74.0117886908533,40.712839004297],[-74.0125483739489,40.7131751134617],[-74.0130861081044,40.7134154524594],[-74.0137256013044,40.7136865659614],[-74.0134404256316,40.7144386759259],[-74.0132567942078,40.7150728112017],[-74.0132195668288,40.7152164730219],[-74.0131038178305,40.7156274033698],[-74.0130264169395,40.7159603928711],[-74.0129227281486,40.7164064738036],[-74.0127321196642,40.71712188621],[-74.0126895118,40.7173063526057],[-74.0123268867803,40.7188807107806],[-74.012293109754,40.7190472066065],[-74.0124425424182,40.7190659301047],[-74.0125561386404,40.7190781204256],[-74.0127031297807,40.7191000327256],[-74.0130321324084,40.7191397132141],[-74.0130131791387,40.7192272265291],[-74.0129566935686,40.719497710865],[-74.0129589468211,40.7195084217754],[-74.0129103787819,40.7197431092239],[-74.0134565076524,40.7198099649376],[-74.0134152164494,40.7200277400723],[-74.0139959737061,40.7200939070147],[-74.0140014511557,40.7200754417084],[-74.0142660715882,40.7201034041241],[-74.014268418315,40.7200950646824],[-74.0155750929916,40.7202515514858],[-74.0155750954977,40.7202622735377],[-74.0157152367721,40.7202789322896],[-74.0157144617318,40.7203116932723],[-74.0163799352062,40.7203848658497],[-74.0163071850572,40.7207352776309],[-74.0144986541664,40.7205219788776],[-74.0135206427008,40.7204034441836],[-74.0130012579978,40.7203413483816],[-74.0128987539153,40.7208763032132],[-74.0156961711953,40.7212146830859],[-74.0156239099396,40.7215517114503],[-74.0131621173867,40.7212622210009],[-74.0131180844335,40.721481991879],[-74.0132552521172,40.7214981778504],[-74.0132633907507,40.7214800692759],[-74.0136366878871,40.7215248184729],[-74.0136170348303,40.7215944404148],[-74.0135627317738,40.7215888722038],[-74.0135625423954,40.7215801516185],[-74.0132571025474,40.7215521138964],[-74.0132594479105,40.7215360308858],[-74.0131138244669,40.7215181781538],[-74.0131052204639,40.7215628538409],[-74.012540209203,40.7215114344533],[-74.0124931614474,40.7217880157602],[-74.0123721682841,40.722395838635],[-74.0122322595274,40.7230645152647],[-74.0120960894179,40.723715311308],[-74.0119657716092,40.7243381231932],[-74.0115926764857,40.724305862718],[-74.0114407797951,40.7242927272333],[-74.011355733541,40.7242854417077],[-74.0112361593529,40.724273891416],[-74.0111507145114,40.7246964306284],[-74.0111239596005,40.7248287397959],[-74.0110576456771,40.725156669526],[-74.0109441806039,40.7256705012167],[-74.0109407951006,40.7256928800911],[-74.0109242227943,40.7258024101226],[-74.0108138319034,40.7257980613332],[-74.0100548355977,40.725252710572],[-74.0097329732442,40.72499863019],[-74.0093190538631,40.7247098105082],[-74.0086452548314,40.7242295760015],[-74.0085723591588,40.7241776138209],[-74.0083036119111,40.7239860675291],[-74.0080798011965,40.7238351217552],[-74.0079135088906,40.7237080257373],[-74.0076304898853,40.7235059620155],[-74.0062998656422,40.722557761969],[-74.0059143469443,40.7222612074214],[-74.0053113088138,40.7218324500067],[-74.0052286096689,40.7217523617463],[-74.0046366094957,40.7213618913658],[-74.0039307312685,40.7208626931124],[-74.0035133116948,40.7205646104001],[-74.0032609977017,40.7203853537404],[-74.0026014654083,40.7199116837403],[-74.0018855093649,40.7194058286287],[-74.0014020029206,40.7190608784892],[-74.0012741801105,40.7189696842203],[-74.0005334014312,40.7184384972129],[-73.9999576542157,40.7180253527227],[-73.9993138627765,40.717558499344]]]},"properties":{"NTA2020":"MN0102","NTAName":"Tribeca-Civic Center","NTAAbbrev":"TriBeCa"}}]}